# From MPEC 2026-E44
C/2017 U5 (PANSTARRS),e,18.9250,162.9902,262.3769,17.01853,0.0140385,0.74514257,43.1174,05/19.0/2026,2000,g 12.0,4.0
# From MPEC 2026-E44
C/2017 U7 (PANSTARRS),h,09/15.9999/2019,142.6387,276.3175,326.3363,1.002373,6.410409,2000,8.3,2.0
# From MPEC 2026-E44
C/2017 W2 (Leonard),e,98.3070,312.6542,168.9375,13.61271,0.0196240,0.70934113,61.2914,05/19.0/2026,2000,g 11.0,4.0
# From MPEC 2026-E44
P/2017 W3 (Gibbs),e,18.2010,210.0137,327.8125,7.816332,0.0451024,0.50757057,135.3891,05/19.0/2026,2000,g 10.5,4.0
# From MPEC 2026-E44
C/2017 X1 (PANSTARRS),e,31.3448,251.1582,282.9504,30.99002,0.0057131,0.85025576,16.5304,05/19.0/2026,2000,g 10.0,4.0
# From MPEC 2026-E44
C/2017 Y1 (PANSTARRS),e,55.2117,307.2469,134.5454,3576,0.0000046,0.99896040,0.0000,09/01.2060/2017,2000,g 11.5,4.0
# From MPEC 2026-E44
C/2017 Y2 (PANSTARRS),h,11/04.5477/2020,128.4429,66.0031,147.7183,1.000540,4.615642,2000,15.0,4.0
# From MPEC 2026-E44
P/2017 Y3 (Leonard),e,27.6535,154.0886,67.2253,9.790842,0.0321717,0.87009321,97.2616,05/19.0/2026,2000,g 16.5,4.0
# From MPEC 2026-E44
C/2018 A1 (PANSTARRS),e,53.4779,336.3815,96.4312,25.26357,0.0077618,0.90452030,24.2979,05/19.0/2026,2000,g 12.5,4.0
# From MPEC 2026-E44
C/2018 A3 (ATLAS),e,139.6510,194.4049,86.6060,353.8421,0.0001481,0.99067739,0.0000,01/08.5891/2019,2000,g  8.5,4.0
# From MPEC 2026-E44
C/2018 A4 (PANSTARRS),e,3.1535,97.5378,356.0799,12.22276,0.0230648,0.80442026,67.3127,05/19.0/2026,2000,g 14.0,4.0
# From MPEC 2026-E44
P/2018 A5 (PANSTARRS),e,23.6312,87.7817,359.5914,5.623753,0.0739034,0.52439812,232.9268,05/19.0/2026,2000,g 15.0,4.0
# From MPEC 2026-E44
C/2018 A6 (Gibbs),e,77.2005,340.4985,264.2192,14.98979,0.0169829,0.79902025,42.5291,05/19.0/2026,2000,g  9.0,4.0
# From MPEC 2026-E44
C/2018 B1 (Lemmon),e,162.4655,133.1888,68.6368,21199,0.0000003,0.99975682,0.0000,03/28.1735/2018,2000,g  9.0,4.0
# From MPEC 2026-E44
P/2018 C1 (Lemmon-Read),e,5.0981,270.1111,235.9197,5.648509,0.0734181,0.53289695,220.5427,05/19.0/2026,2000,g 13.5,4.0
# From MPEC 2026-E44
C/2018 C2 (Lemmon),e,34.4614,91.3704,133.6456,2200,0.0000096,0.99911758,0.0000,05/31.3794/2018,2000,g 13.0,4.0
# From MPEC 2026-E44
C/2018 DO4 (Lemmon),e,160.4351,251.4518,176.5113,25.52499,0.0076429,0.90494200,18.8535,05/19.0/2026,2000,g 11.0,4.0
# From MPEC 2026-E44
C/2018 E1 (ATLAS),e,72.4346,146.5746,299.4305,54.18089,0.0024714,0.95020290,7.2977,05/19.0/2026,2000,g 10.5,4.0
# From MPEC 2026-E44
C/2018 E2 (Barros),e,97.6089,67.1525,277.5687,1592,0.0000155,0.99752380,0.0000,12/19.1266/2017,2000,g 10.5,4.0
# From MPEC 2026-E44
C/2018 EN4 (NEOWISE),e,82.2343,136.1706,34.9729,17.89737,0.0130173,0.91858875,37.8395,05/19.0/2026,2000,g 15.0,4.0
# From MPEC 2026-E44
C/2018 EF9 (Lemmon),e,84.9096,172.7881,72.6010,411.1735,0.0001182,0.99619832,0.0000,05/19.7889/2018,2000,g 18.0,2.0
# From MPEC 2026-E44
C/2018 F1 (Grauer),e,46.2291,177.3550,71.3348,215.1335,0.0003124,0.98612505,0.0000,12/10.3397/2018,2000,g 11.5,4.0
# From MPEC 2026-E44
C/2018 F4 (PANSTARRS),e,78.1955,26.5695,263.1736,1549,0.0000162,0.99777423,0.0000,11/30.3887/2019,2000,g 11.0,6.0
# From MPEC 2026-E44
C/2018 F4-A,e,78.1957,26.5696,263.1703,1512,0.0000168,0.99771981,0.0000,11/30.3764/2019,2000,g 11.0,6.0
# From MPEC 2026-E44
C/2018 F4-B,e,78.1967,26.5691,263.1561,1575,0.0000158,0.99781083,0.0000,11/30.3137/2019,2000,g 11.0,6.0
# From MPEC 2026-E44
P/2018 H2 (PANSTARRS),e,7.4450,67.5470,119.4039,4.419152,0.1060952,0.53973562,327.8843,05/19.0/2026,2000,g 16.6,2.0
# From MPEC 2026-E44
C/2018 K1 (Weiland),e,164.1825,260.2508,325.0660,30.03379,0.0059881,0.93807567,17.7347,05/19.0/2026,2000,g 14.9,4.0
# From MPEC 2021-R75
C/2018 KJ3 (Lemmon),e,136.6263,91.6926,217.4935,622.4104,0.0000635,0.99418910,0.0000,09/07.5328/2019,2000,g 12.2,2.0
# From MPEC 2026-E44
C/2018 L2 (ATLAS),e,67.2771,243.0161,56.3210,229.1383,0.0002842,0.99248405,0.0000,11/28.4066/2018,2000,g 10.0,4.0
# From MPEC 2026-E44
P/2018 L4 (PANSTARRS),e,26.6395,145.1838,140.4660,4.951589,0.0894514,0.65899328,255.8475,05/19.0/2026,2000,g 17.5,4.0
# From MPEC 2026-E44
C/2018 M1 (Catalina),e,37.0563,339.4997,14.3370,21.53238,0.0098643,0.93870702,28.3296,05/19.0/2026,2000,g 15.5,4.0
# From MPEC 2026-E44
C/2018 N1 (NEOWISE),e,159.3306,292.7134,354.6515,465.4510,0.0000982,0.99722539,0.0000,08/03.9676/2018,2000,g 15.5,4.0
# From MPEC 2026-E44
C/2018 N2 (ASASSN),h,11/11.9787/2019,77.4361,25.2735,24.6318,1.002102,3.138105,2000,6.0,4.0
# From MPEC 2026-E44
C/2018 O1 (ATLAS),e,153.9616,87.8944,162.5736,27.92419,0.0066793,0.94480153,18.8105,05/19.0/2026,2000,g 17.0,4.0
# From MPEC 2026-E44
P/2018 P4 (PANSTARRS),e,23.0622,353.1002,8.5620,6.698274,0.0568538,0.44838216,156.5013,05/19.0/2026,2000,g 12.0,4.0
# From MPEC 2026-E44
C/2018 P5 (PANSTARRS),e,7.2474,216.2392,132.0455,12.83056,0.0214455,0.64087624,56.6518,05/19.0/2026,2000,g 11.0,4.0
# From MPEC 2026-E44
C/2018 R3 (Lemmon),e,69.6513,324.2267,112.9360,2006,0.0000110,0.99935800,0.0000,06/07.6569/2019,2000,g  9.5,4.0
# From MPEC 2026-E44
C/2018 R4 (Fuls),e,11.6355,298.7473,345.0523,294.9285,0.0001946,0.99415391,0.0000,02/26.8048/2018,2000,g 14.0,4.0
# From MPEC 2026-E44
C/2018 R5 (Lemmon),e,103.6400,171.2729,178.2938,22.96267,0.0089572,0.84173380,24.0511,05/19.0/2026,2000,g 11.5,4.0
# From MPEC 2026-E44
C/2018 S2 (TESS),e,64.1196,85.0767,291.0308,14.36213,0.0181082,0.61704166,49.8590,05/19.0/2026,2000,g  7.5,4.0
# From MPEC 2026-E44
C/2018 S3 (TESS),e,78.4103,25.0519,263.8918,19324,0.0000004,0.99958511,0.0000,06/23.9932/2016,2000,g  9.7,4.0
# From MPEC 2026-E44
C/2018 U1 (Lemmon),e,108.3281,75.4980,180.2820,7990,0.0000014,0.99937650,0.0000,11/01.5179/2021,2000,g  5.0,4.0
# From MPEC 2026-E44
C/2018 V1 (Machholz-Fujikawa-Iwamoto),h,12/05.0805/2018,144.2264,129.7345,89.6333,1.000369,0.388071,2000,12.0,4.0
# From MPEC 2026-E44
C/2018 V2 (ATLAS),e,159.1551,357.3083,319.3553,25.28827,0.0077504,0.90158480,21.1534,05/19.0/2026,2000,g 15.5,4.0
# From MPEC 2026-E44
P/2018 VN2 (Leonard),e,18.2552,226.4282,138.9335,4.060036,0.1204784,0.47794415,349.3039,05/19.0/2026,2000,g 15.0,4.0
# From MPEC 2026-E44
A/2018 V3,e,164.8995,308.8479,3.5301,125.3323,0.0007024,0.98942528,0.0000,09/10.3618/2019,2000,g 15.7,2.0
# From MPEC 2026-E44
C/2018 V4 (Africano),e,69.0421,78.2428,0.1885,219.3707,0.0003033,0.98535784,0.0000,03/02.1992/2019,2000,g 12.5,4.0
# From MPEC 2026-E44
P/2018 V5 (Trujillo-Sheppard),e,10.5698,171.2162,261.0690,8.988988,0.0365711,0.47526215,101.7455,05/19.0/2026,2000,g 12.5,4.0
# From MPEC 2026-E44
C/2018 W1 (Catalina),e,83.3228,233.6010,251.1235,21.76055,0.0097096,0.93803756,24.8677,05/19.0/2026,2000,g 15.5,2.0
# From MPEC 2026-E44
C/2018 W2 (Africano),h,09/06.1379/2019,116.4761,182.0797,158.2571,1.000961,1.463185,2000,9.5,4.0
# From MPEC 2026-E44
A/2018 W3,e,104.8279,251.6669,313.7959,670.5068,0.0000568,0.99362233,0.0000,04/13.2095/2021,2000,g 10.5,2.0
# From MPEC 2026-E44
C/2018 X2 (Fitzsimmons),e,23.1255,340.5623,162.0902,142.9058,0.0005769,0.98522987,0.0000,07/10.6871/2019,2000,g 12.0,4.0
# From MPEC 2026-E44
C/2018 X3 (PANSTARRS),e,43.4287,78.7946,359.9408,12.42801,0.0224958,0.78268035,60.6146,05/19.0/2026,2000,g 14.5,4.0
# From MPEC 2026-E44
C/2018 Y1 (Iwamoto),e,160.5085,147.2884,357.8952,126.9962,0.0006887,0.98977045,0.0000,02/02.7464/2019,2000,g 11.5,4.0
# From MPEC 2026-E44
P/2018 Y2 (Africano),e,11.6973,297.1072,162.4620,7.460880,0.0483636,0.47981705,130.1306,05/19.0/2026,2000,g 11.5,4.0
# From MPEC 2026-E44
P/2019 A1 (PANSTARRS),e,13.7796,312.1947,150.8340,5.111591,0.0852845,0.57038330,236.3603,05/19.0/2026,2000,g 16.0,4.0
# From MPEC 2026-E44
P/2019 A2 (ATLAS),e,14.8787,139.3634,324.0135,5.710243,0.0722308,0.38330123,197.2671,05/19.0/2026,2000,g 10.5,4.0
# From MPEC 2026-E44
P/2019 A3 (PANSTARRS),e,15.3613,31.0827,325.5840,3.141905,0.1769761,0.26860236,142.8699,05/19.0/2026,2000,g 16.0,4.0
# From MPEC 2026-E44
P/2019 A4 (PANSTARRS),e,13.3069,119.2262,343.5470,2.613786,0.2332379,0.08752608,272.8963,05/19.0/2026,2000,g 15.0,4.0
# From MPEC 2026-E44
C/2019 A5 (PANSTARRS),e,67.5573,146.4808,355.9152,21.54418,0.0098562,0.70674529,25.0063,05/19.0/2026,2000,g  9.5,4.0
# From MPEC 2026-E44
P/2019 A6 (Lemmon-PANSTARRS),e,33.3135,280.1465,156.2997,5.357115,0.0794891,0.64006630,223.7696,05/19.0/2026,2000,g 16.0,4.0
# From MPEC 2026-E44
C/2019 A9 (PANSTARRS),e,84.3959,278.4684,237.8603,39.42973,0.0039808,0.96389305,9.8989,05/19.0/2026,2000,g 15.0,4.0
# From MPEC 2026-E44
C/2019 B1 (Africano),e,123.5306,290.2387,174.8814,140.6571,0.0005908,0.98854123,0.0000,03/17.7848/2019,2000,g 16.0,4.0
# From MPEC 2026-E44
P/2019 B2 (Groeller),e,16.9490,175.5559,0.4235,3.935583,0.1262381,0.35784933,324.5292,05/19.0/2026,2000,g 14.5,4.0
# From MPEC 2026-E44
C/2019 B3 (PANSTARRS),e,66.6366,358.3960,263.9939,3053,0.0000058,0.99776274,0.0000,01/19.2268/2021,2000,g  5.5,4.0
# From MPEC 2026-E44
C/2019 C1 (ATLAS),e,36.0234,212.3365,319.0588,738.3042,0.0000491,0.99110558,0.0000,05/05.3773/2020,2000,g 10.0,4.0
# From MPEC 2026-E44
C/2019 D1 (Flewelling),e,34.0484,231.7171,70.6476,133.9506,0.0006358,0.98811758,0.0000,05/07.8205/2019,2000,g 13.0,4.0
# From MPEC 2026-E43
C/2019 E3 (ATLAS),e,84.3304,347.1771,280.7276,7713,0.0000015,0.99866292,0.0000,11/15.9061/2023,2000,g  2.5,4.0
# From MPEC 2026-E44
C/2019 F1 (ATLAS-Africano),e,54.2900,38.6695,251.2536,14741,0.0000006,0.99975536,0.0000,06/20.6411/2021,2000,g  5.5,4.0
# From MPEC 2026-E44
C/2019 F2 (ATLAS),e,19.3591,175.3159,11.6022,16.55662,0.0146301,0.86504541,35.7602,05/19.0/2026,2000,g 12.0,4.0
# From MPEC 2026-E44
C/2019 G2 (PANSTARRS),e,159.2780,208.2940,82.9046,411.1250,0.0001182,0.99437714,0.0000,12/06.0967/2019,2000,g 15.0,4.0
# From MPEC 2026-E44
A/2019 G3,e,156.8204,49.8493,161.6490,17.08059,0.0139621,0.83396264,38.0434,05/19.0/2026,2000,g 17.1,2.0
# From MPEC 2026-E44
C/2019 G4 (PANSTARRS),e,138.2843,130.3790,287.7341,5085,0.0000027,0.99884891,0.0000,09/12.8989/2018,2000,g  9.5,4.0
# From MPEC 2026-E44
P/2019 GG21 (PANSTARRS),e,6.0717,340.5322,209.1502,7.484521,0.0481347,0.47310661,123.3552,05/19.0/2026,2000,g 12.0,4.0
